NOAA 18                 
1 28654U 05018A   26080.92747175  .00000045  00000+0  46825-4 0  9994
2 28654  98.8139 161.8624 0014905  42.7187 317.5141 14.13713110 73982
NOAA 19                 
1 33591U 09005A   26080.91083027  .00000052  00000+0  51425-4 0  9998
2 33591  98.9584 151.7011 0012674 277.4622  82.5110 14.13459056882151
SUOMI NPP               
1 37849U 11061A   26080.93720324  .00000102  00000+0  69608-4 0  9991
2 37849  98.7884  22.4435 0001288 176.9429 183.1755 14.19496527746065
NOAA 20 (JPSS-1)        
1 43013U 17073A   26080.95183295  .00000100  00000+0  68485-4 0  9992
2 43013  98.7707  21.2180 0001686 121.4588 238.6753 14.19539231432095
