[{"OBJECT_NAME":"NOAA 18","OBJECT_ID":"2005-018A","EPOCH":"2026-03-21T22:15:33.559200","MEAN_MOTION":14.1371311,"ECCENTRICITY":0.00149054,"INCLINATION":98.8139,"RA_OF_ASC_NODE":161.8624,"ARG_OF_PERICENTER":42.7187,"MEAN_ANOMALY":317.5141,"EPHEMERIS_TYPE":0,"CLASSIFICATION_TYPE":"U","NORAD_CAT_ID":28654,"ELEMENT_SET_NO":999,"REV_AT_EPOCH":7398,"BSTAR":4.6824573e-5,"MEAN_MOTION_DOT":4.5e-7,"MEAN_MOTION_DDOT":0},{"OBJECT_NAME":"NOAA 19","OBJECT_ID":"2009-005A","EPOCH":"2026-03-21T21:51:35.735328","MEAN_MOTION":14.13459056,"ECCENTRICITY":0.00126746,"INCLINATION":98.9584,"RA_OF_ASC_NODE":151.7011,"ARG_OF_PERICENTER":277.4622,"MEAN_ANOMALY":82.511,"EPHEMERIS_TYPE":0,"CLASSIFICATION_TYPE":"U","NORAD_CAT_ID":33591,"ELEMENT_SET_NO":999,"REV_AT_EPOCH":88215,"BSTAR":5.1425058e-5,"MEAN_MOTION_DOT":5.2e-7,"MEAN_MOTION_DDOT":0},{"OBJECT_NAME":"SUOMI NPP","OBJECT_ID":"2011-061A","EPOCH":"2026-03-21T22:29:34.359936","MEAN_MOTION":14.19496527,"ECCENTRICITY":0.00012883,"INCLINATION":98.7884,"RA_OF_ASC_NODE":22.4435,"ARG_OF_PERICENTER":176.9429,"MEAN_ANOMALY":183.1755,"EPHEMERIS_TYPE":0,"CLASSIFICATION_TYPE":"U","NORAD_CAT_ID":37849,"ELEMENT_SET_NO":999,"REV_AT_EPOCH":74606,"BSTAR":6.9608446e-5,"MEAN_MOTION_DOT":1.02e-6,"MEAN_MOTION_DDOT":0},{"OBJECT_NAME":"NOAA 20 (JPSS-1)","OBJECT_ID":"2017-073A","EPOCH":"2026-03-21T22:50:38.366880","MEAN_MOTION":14.19539231,"ECCENTRICITY":0.00016861,"INCLINATION":98.7707,"RA_OF_ASC_NODE":21.218,"ARG_OF_PERICENTER":121.4588,"MEAN_ANOMALY":238.6753,"EPHEMERIS_TYPE":0,"CLASSIFICATION_TYPE":"U","NORAD_CAT_ID":43013,"ELEMENT_SET_NO":999,"REV_AT_EPOCH":43209,"BSTAR":6.848483e-5,"MEAN_MOTION_DOT":1.0e-6,"MEAN_MOTION_DDOT":0}]
